0 FENGYUN 1C DEB
1 31196U 99025BKA 13282.85639410  .00000491  00000-0  25661-3 0  2278
2 31196 098.9042 292.1157 0065180 073.1975 287.6353 14.17848389339072
0 FENGYUN 1C DEB
1 31196U 99025BKA 13285.89083347  .00000526  00000-0  27364-3 0  2290
2 31196 098.9084 295.1647 0065734 066.5495 294.2595 14.17853023339504
0 FENGYUN 1C DEB
1 31196U 99025BKA 13289.84264909  .00000543  00000-0  28166-3 0  2306
2 31196 098.9076 299.1242 0065480 055.4483 305.2927 14.17858480340069
0 FENGYUN 1C DEB
1 31196U 99025BKA 13291.81854431  .00000585  00000-0  30183-3 0  2310
2 31196 098.9077 301.1075 0065182 049.5088 311.1884 14.17862460340344
0 FENGYUN 1C DEB
1 31196U 99025BKA 13292.80649045  .00000612  00000-0  31487-3 0  2323
2 31196 098.9093 302.1002 0064639 048.5333 312.2031 14.17865110340487
0 FENGYUN 1C DEB
1 31196U 99025BKA 13293.86498542  .00000649  00000-0  33305-3 0  2336
2 31196 098.9062 303.1488 0064008 042.8738 317.7502 14.17868088340635
